<?xml version="1.0" encoding="UTF-8"?>
<ndm xmlns:xsi="http://www.w3.org/2001/XMLSchema-instance" xsi:noNamespaceSchemaLocation="https://sanaregistry.org/r/ndmxml_unqualified/ndmxml-2.0.0-master-2.0.xsd">
<omm id="CCSDS_OMM_VERS" version="2.0">
<header><CREATION_DATE/><ORIGINATOR/></header><body><segment><metadata><OBJECT_NAME>ORBCOMM FM37</OBJECT_NAME><OBJECT_ID>2008-031E</OBJECT_ID><CENTER_NAME>EARTH</CENTER_NAME><REF_FRAME>TEME</REF_FRAME><TIME_SYSTEM>UTC</TIME_SYSTEM><MEAN_ELEMENT_THEORY>SGP4</MEAN_ELEMENT_THEORY></metadata><data><meanElements><EPOCH>2024-05-19T03:34:50.637216</EPOCH><MEAN_MOTION>14.76502646</MEAN_MOTION><ECCENTRICITY>.0005636</ECCENTRICITY><INCLINATION>48.4406</INCLINATION><RA_OF_ASC_NODE>52.2959</RA_OF_ASC_NODE><ARG_OF_PERICENTER>131.0376</ARG_OF_PERICENTER><MEAN_ANOMALY>11.3565</MEAN_ANOMALY></meanElements><tleParameters><EPHEMERIS_TYPE>0</EPHEMERIS_TYPE><CLASSIFICATION_TYPE>U</CLASSIFICATION_TYPE><NORAD_CAT_ID>33064</NORAD_CAT_ID><ELEMENT_SET_NO>999</ELEMENT_SET_NO><REV_AT_EPOCH>85575</REV_AT_EPOCH><BSTAR>.78338E-3</BSTAR><MEAN_MOTION_DOT>.5314E-4</MEAN_MOTION_DOT><MEAN_MOTION_DDOT>0</MEAN_MOTION_DDOT></tleParameters></data></segment></body></omm>
<omm id="CCSDS_OMM_VERS" version="2.0">
<header><CREATION_DATE/><ORIGINATOR/></header><body><segment><metadata><OBJECT_NAME>ORBCOMM FM40</OBJECT_NAME><OBJECT_ID>2008-031F</OBJECT_ID><CENTER_NAME>EARTH</CENTER_NAME><REF_FRAME>TEME</REF_FRAME><TIME_SYSTEM>UTC</TIME_SYSTEM><MEAN_ELEMENT_THEORY>SGP4</MEAN_ELEMENT_THEORY></metadata><data><meanElements><EPOCH>2024-05-19T03:21:12.113856</EPOCH><MEAN_MOTION>14.77834349</MEAN_MOTION><ECCENTRICITY>.0007055</ECCENTRICITY><INCLINATION>48.4433</INCLINATION><RA_OF_ASC_NODE>41.6311</RA_OF_ASC_NODE><ARG_OF_PERICENTER>139.8491</ARG_OF_PERICENTER><MEAN_ANOMALY>12.9292</MEAN_ANOMALY></meanElements><tleParameters><EPHEMERIS_TYPE>0</EPHEMERIS_TYPE><CLASSIFICATION_TYPE>U</CLASSIFICATION_TYPE><NORAD_CAT_ID>33065</NORAD_CAT_ID><ELEMENT_SET_NO>999</ELEMENT_SET_NO><REV_AT_EPOCH>85579</REV_AT_EPOCH><BSTAR>.90858E-3</BSTAR><MEAN_MOTION_DOT>.64E-4</MEAN_MOTION_DOT><MEAN_MOTION_DDOT>0</MEAN_MOTION_DDOT></tleParameters></data></segment></body></omm>
<omm id="CCSDS_OMM_VERS" version="2.0">
<header><CREATION_DATE/><ORIGINATOR/></header><body><segment><metadata><OBJECT_NAME>VESSELSAT 1</OBJECT_NAME><OBJECT_ID>2011-058C</OBJECT_ID><CENTER_NAME>EARTH</CENTER_NAME><REF_FRAME>TEME</REF_FRAME><TIME_SYSTEM>UTC</TIME_SYSTEM><MEAN_ELEMENT_THEORY>SGP4</MEAN_ELEMENT_THEORY></metadata><data><meanElements><EPOCH>2024-05-19T14:57:14.372928</EPOCH><MEAN_MOTION>14.11156780</MEAN_MOTION><ECCENTRICITY>.0013667</ECCENTRICITY><INCLINATION>19.9635</INCLINATION><RA_OF_ASC_NODE>314.9880</RA_OF_ASC_NODE><ARG_OF_PERICENTER>177.6995</ARG_OF_PERICENTER><MEAN_ANOMALY>182.3473</MEAN_ANOMALY></meanElements><tleParameters><EPHEMERIS_TYPE>0</EPHEMERIS_TYPE><CLASSIFICATION_TYPE>U</CLASSIFICATION_TYPE><NORAD_CAT_ID>37840</NORAD_CAT_ID><ELEMENT_SET_NO>999</ELEMENT_SET_NO><REV_AT_EPOCH>65064</REV_AT_EPOCH><BSTAR>.1802E-3</BSTAR><MEAN_MOTION_DOT>.595E-5</MEAN_MOTION_DOT><MEAN_MOTION_DDOT>0</MEAN_MOTION_DDOT></tleParameters></data></segment></body></omm>
<omm id="CCSDS_OMM_VERS" version="2.0">
<header><CREATION_DATE/><ORIGINATOR/></header><body><segment><metadata><OBJECT_NAME>ORBCOMM FM109</OBJECT_NAME><OBJECT_ID>2014-040A</OBJECT_ID><CENTER_NAME>EARTH</CENTER_NAME><REF_FRAME>TEME</REF_FRAME><TIME_SYSTEM>UTC</TIME_SYSTEM><MEAN_ELEMENT_THEORY>SGP4</MEAN_ELEMENT_THEORY></metadata><data><meanElements><EPOCH>2024-05-19T01:56:48.402528</EPOCH><MEAN_MOTION>14.56641940</MEAN_MOTION><ECCENTRICITY>.0002557</ECCENTRICITY><INCLINATION>47.0030</INCLINATION><RA_OF_ASC_NODE>75.5129</RA_OF_ASC_NODE><ARG_OF_PERICENTER>301.8941</ARG_OF_PERICENTER><MEAN_ANOMALY>58.1695</MEAN_ANOMALY></meanElements><tleParameters><EPHEMERIS_TYPE>0</EPHEMERIS_TYPE><CLASSIFICATION_TYPE>U</CLASSIFICATION_TYPE><NORAD_CAT_ID>40086</NORAD_CAT_ID><ELEMENT_SET_NO>999</ELEMENT_SET_NO><REV_AT_EPOCH>52357</REV_AT_EPOCH><BSTAR>.69374E-3</BSTAR><MEAN_MOTION_DOT>.2958E-4</MEAN_MOTION_DOT><MEAN_MOTION_DDOT>0</MEAN_MOTION_DDOT></tleParameters></data></segment></body></omm>
<omm id="CCSDS_OMM_VERS" version="2.0">
<header><CREATION_DATE/><ORIGINATOR/></header><body><segment><metadata><OBJECT_NAME>ORBCOMM FM107</OBJECT_NAME><OBJECT_ID>2014-040B</OBJECT_ID><CENTER_NAME>EARTH</CENTER_NAME><REF_FRAME>TEME</REF_FRAME><TIME_SYSTEM>UTC</TIME_SYSTEM><MEAN_ELEMENT_THEORY>SGP4</MEAN_ELEMENT_THEORY></metadata><data><meanElements><EPOCH>2024-05-19T02:46:02.324352</EPOCH><MEAN_MOTION>14.56652608</MEAN_MOTION><ECCENTRICITY>.0002033</ECCENTRICITY><INCLINATION>47.0047</INCLINATION><RA_OF_ASC_NODE>76.3185</RA_OF_ASC_NODE><ARG_OF_PERICENTER>276.9335</ARG_OF_PERICENTER><MEAN_ANOMALY>83.1319</MEAN_ANOMALY></meanElements><tleParameters><EPHEMERIS_TYPE>0</EPHEMERIS_TYPE><CLASSIFICATION_TYPE>U</CLASSIFICATION_TYPE><NORAD_CAT_ID>40087</NORAD_CAT_ID><ELEMENT_SET_NO>999</ELEMENT_SET_NO><REV_AT_EPOCH>52365</REV_AT_EPOCH><BSTAR>.68956E-3</BSTAR><MEAN_MOTION_DOT>.294E-4</MEAN_MOTION_DOT><MEAN_MOTION_DDOT>0</MEAN_MOTION_DDOT></tleParameters></data></segment></body></omm>
<omm id="CCSDS_OMM_VERS" version="2.0">
<header><CREATION_DATE/><ORIGINATOR/></header><body><segment><metadata><OBJECT_NAME>ORBCOMM FM106</OBJECT_NAME><OBJECT_ID>2014-040C</OBJECT_ID><CENTER_NAME>EARTH</CENTER_NAME><REF_FRAME>TEME</REF_FRAME><TIME_SYSTEM>UTC</TIME_SYSTEM><MEAN_ELEMENT_THEORY>SGP4</MEAN_ELEMENT_THEORY></metadata><data><meanElements><EPOCH>2024-05-19T12:32:41.476992</EPOCH><MEAN_MOTION>14.67083627</MEAN_MOTION><ECCENTRICITY>.0017085</ECCENTRICITY><INCLINATION>47.0597</INCLINATION><RA_OF_ASC_NODE>286.8669</RA_OF_ASC_NODE><ARG_OF_PERICENTER>37.6913</ARG_OF_PERICENTER><MEAN_ANOMALY>322.5171</MEAN_ANOMALY></meanElements><tleParameters><EPHEMERIS_TYPE>0</EPHEMERIS_TYPE><CLASSIFICATION_TYPE>U</CLASSIFICATION_TYPE><NORAD_CAT_ID>40088</NORAD_CAT_ID><ELEMENT_SET_NO>999</ELEMENT_SET_NO><REV_AT_EPOCH>52562</REV_AT_EPOCH><BSTAR>.73786E-3</BSTAR><MEAN_MOTION_DOT>.401E-4</MEAN_MOTION_DOT><MEAN_MOTION_DDOT>0</MEAN_MOTION_DDOT></tleParameters></data></segment></body></omm>
<omm id="CCSDS_OMM_VERS" version="2.0">
<header><CREATION_DATE/><ORIGINATOR/></header><body><segment><metadata><OBJECT_NAME>ORBCOMM FM111</OBJECT_NAME><OBJECT_ID>2014-040D</OBJECT_ID><CENTER_NAME>EARTH</CENTER_NAME><REF_FRAME>TEME</REF_FRAME><TIME_SYSTEM>UTC</TIME_SYSTEM><MEAN_ELEMENT_THEORY>SGP4</MEAN_ELEMENT_THEORY></metadata><data><meanElements><EPOCH>2024-05-18T23:46:02.564544</EPOCH><MEAN_MOTION>14.81866579</MEAN_MOTION><ECCENTRICITY>.0031769</ECCENTRICITY><INCLINATION>47.0026</INCLINATION><RA_OF_ASC_NODE>189.4222</RA_OF_ASC_NODE><ARG_OF_PERICENTER>110.2067</ARG_OF_PERICENTER><MEAN_ANOMALY>250.2249</MEAN_ANOMALY></meanElements><tleParameters><EPHEMERIS_TYPE>0</EPHEMERIS_TYPE><CLASSIFICATION_TYPE>U</CLASSIFICATION_TYPE><NORAD_CAT_ID>40089</NORAD_CAT_ID><ELEMENT_SET_NO>999</ELEMENT_SET_NO><REV_AT_EPOCH>53167</REV_AT_EPOCH><BSTAR>.56011E-3</BSTAR><MEAN_MOTION_DOT>.4308E-4</MEAN_MOTION_DOT><MEAN_MOTION_DDOT>0</MEAN_MOTION_DDOT></tleParameters></data></segment></body></omm>
<omm id="CCSDS_OMM_VERS" version="2.0">
<header><CREATION_DATE/><ORIGINATOR/></header><body><segment><metadata><OBJECT_NAME>ORBCOMM FM104</OBJECT_NAME><OBJECT_ID>2014-040E</OBJECT_ID><CENTER_NAME>EARTH</CENTER_NAME><REF_FRAME>TEME</REF_FRAME><TIME_SYSTEM>UTC</TIME_SYSTEM><MEAN_ELEMENT_THEORY>SGP4</MEAN_ELEMENT_THEORY></metadata><data><meanElements><EPOCH>2024-05-19T03:55:40.430496</EPOCH><MEAN_MOTION>14.55159294</MEAN_MOTION><ECCENTRICITY>.001711</ECCENTRICITY><INCLINATION>47.0036</INCLINATION><RA_OF_ASC_NODE>105.0984</RA_OF_ASC_NODE><ARG_OF_PERICENTER>208.0694</ARG_OF_PERICENTER><MEAN_ANOMALY>151.9269</MEAN_ANOMALY></meanElements><tleParameters><EPHEMERIS_TYPE>0</EPHEMERIS_TYPE><CLASSIFICATION_TYPE>U</CLASSIFICATION_TYPE><NORAD_CAT_ID>40090</NORAD_CAT_ID><ELEMENT_SET_NO>999</ELEMENT_SET_NO><REV_AT_EPOCH>52320</REV_AT_EPOCH><BSTAR>.52322E-3</BSTAR><MEAN_MOTION_DOT>.2119E-4</MEAN_MOTION_DOT><MEAN_MOTION_DDOT>0</MEAN_MOTION_DDOT></tleParameters></data></segment></body></omm>

</ndm>
