ORBCOMM FM37            
1 33064U 08031E   24140.14919719  .00005314  00000+0  78338-3 0  9994
2 33064  48.4406  52.2959 0005636 131.0376  11.3565 14.76502646855759
ORBCOMM FM40            
1 33065U 08031F   24140.13972354  .00006400  00000+0  90858-3 0  9996
2 33065  48.4433  41.6311 0007055 139.8491  12.9292 14.77834349855792
VESSELSAT 1             
1 37840U 11058C   24140.62308302  .00000595  00000+0  18020-3 0  9994
2 37840  19.9635 314.9880 0013667 177.6995 182.3473 14.11156780650640
ORBCOMM FM109           
1 40086U 14040A   24140.08111577  .00002958  00000+0  69374-3 0  9993
2 40086  47.0030  75.5129 0002557 301.8941  58.1695 14.56641940523574
ORBCOMM FM107           
1 40087U 14040B   24140.11530468  .00002940  00000+0  68956-3 0  9998
2 40087  47.0047  76.3185 0002033 276.9335  83.1319 14.56652608523655
ORBCOMM FM106           
1 40088U 14040C   24140.52270228  .00004010  00000+0  73786-3 0  9996
2 40088  47.0597 286.8669 0017085  37.6913 322.5171 14.67083627525624
ORBCOMM FM111           
1 40089U 14040D   24139.99030746  .00004308  00000+0  56011-3 0  9997
2 40089  47.0026 189.4222 0031769 110.2067 250.2249 14.81866579531674
ORBCOMM FM104           
1 40090U 14040E   24140.16366239  .00002119  00000+0  52322-3 0  9998
2 40090  47.0036 105.0984 0017110 208.0694 151.9269 14.55159294523201
